{
  "norad_id": 46672,
  "name": "STARLINK-1716",
  "history": [
    {
      "epoch": "2026-03-28T18:07:58.319040Z",
      "apogee_km": 369.8838982161242,
      "perigee_km": 357.6334692450446,
      "latitude_deg": 5.0104116287899754e-05,
      "longitude_deg": 9.206215253779087,
      "height_km": 359.7632889495612,
      "semi_major_axis_km": 6741.895683730584,
      "eccentricity": 0.00090853,
      "inclination_deg": 53.0432,
      "raan_deg": 107.3706,
      "arg_perigee_deg": 37.0488,
      "mean_anomaly_deg": 323.1154,
      "mean_motion_rev_day": 15.68302083
    },
    {
      "epoch": "2026-03-29T04:50:18.356640Z",
      "apogee_km": 369.52817017912366,
      "perigee_km": 357.31516249918513,
      "latitude_deg": -2.4145448336772902e-05,
      "longitude_deg": -154.0176922617343,
      "height_km": 359.5447873602182,
      "semi_major_axis_km": 6741.558666339154,
      "eccentricity": 0.0009058,
      "inclination_deg": 53.0431,
      "raan_deg": 105.1699,
      "arg_perigee_deg": 38.6377,
      "mean_anomaly_deg": 321.5285,
      "mean_motion_rev_day": 15.68419686
    },
    {
      "epoch": "2026-03-30T05:18:19.164960Z",
      "apogee_km": 368.77685217008184,
      "perigee_km": 356.59133506273065,
      "latitude_deg": 1.3558366980072066e-05,
      "longitude_deg": -167.0562509091633,
      "height_km": 359.0560370276095,
      "semi_major_axis_km": 6740.821093616406,
      "eccentricity": 0.00090386,
      "inclination_deg": 53.0427,
      "raan_deg": 100.1395,
      "arg_perigee_deg": 42.1058,
      "mean_anomaly_deg": 318.0651,
      "mean_motion_rev_day": 15.68677115
    },
    {
      "epoch": "2026-03-30T09:53:32.651808Z",
      "apogee_km": 368.60623639438654,
      "perigee_km": 356.45375749227605,
      "latitude_deg": 3.2877532548579654e-05,
      "longitude_deg": 123.0054838975324,
      "height_km": 358.9984938277401,
      "semi_major_axis_km": 6740.666996943331,
      "eccentricity": 0.00090143,
      "inclination_deg": 53.0422,
      "raan_deg": 99.1958,
      "arg_perigee_deg": 43.282,
      "mean_anomaly_deg": 316.8903,
      "mean_motion_rev_day": 15.68730907
    },
    {
      "epoch": "2026-03-30T22:00:00.999936Z",
      "apogee_km": 368.1048033503921,
      "perigee_km": 355.79255403940624,
      "latitude_deg": -22.929674378654486,
      "longitude_deg": -80.05301592911441,
      "height_km": 366.8452030445447,
      "semi_major_axis_km": 6740.085678694899,
      "eccentricity": 0.00091336,
      "inclination_deg": 53.0418,
      "raan_deg": 96.7044,
      "arg_perigee_deg": 45.6949,
      "mean_anomaly_deg": 285.4815,
      "mean_motion_rev_day": 15.68933861
    },
    {
      "epoch": "2026-03-31T20:00:01.999008Z",
      "apogee_km": 367.4860950603834,
      "perigee_km": 355.17308959619913,
      "latitude_deg": 47.86147122619746,
      "longitude_deg": 87.18192189100722,
      "height_km": 363.8318163171877,
      "semi_major_axis_km": 6739.466592328291,
      "eccentricity": 0.0009135,
      "inclination_deg": 53.0421,
      "raan_deg": 92.1779,
      "arg_perigee_deg": 49.2441,
      "mean_anomaly_deg": 62.8744,
      "mean_motion_rev_day": 15.69150049
    },
    {
      "epoch": "2026-04-01T20:00:01.999008Z",
      "apogee_km": 366.73593136988984,
      "perigee_km": 354.5010469038125,
      "latitude_deg": 3.7383125505365076,
      "longitude_deg": -40.159413129354725,
      "height_km": 357.0594017536886,
      "semi_major_axis_km": 6738.755489136851,
      "eccentricity": 0.0009078,
      "inclination_deg": 53.042,
      "raan_deg": 87.2376,
      "arg_perigee_deg": 53.2963,
      "mean_anomaly_deg": 311.534,
      "mean_motion_rev_day": 15.69398431
    },
    {
      "epoch": "2026-04-02T20:00:01.999008Z",
      "apogee_km": 365.85436414511696,
      "perigee_km": 353.7611009391503,
      "latitude_deg": -51.70126200610122,
      "longitude_deg": -157.55050326305712,
      "height_km": 383.3538389883148,
      "semi_major_axis_km": 6737.944732542133,
      "eccentricity": 0.0008974,
      "inclination_deg": 53.042,
      "raan_deg": 82.2957,
      "arg_perigee_deg": 57.8292,
      "mean_anomaly_deg": 200.7018,
      "mean_motion_rev_day": 15.69681701
    },
    {
      "epoch": "2026-04-03T00:00:02.999808Z",
      "apogee_km": 365.5960984173953,
      "perigee_km": 353.3996317845895,
      "latitude_deg": 43.3298342640774,
      "longitude_deg": 25.22904055124456,
      "height_km": 360.8992270117664,
      "semi_major_axis_km": 6737.634865100992,
      "eccentricity": 0.0009051,
      "inclination_deg": 53.0437,
      "raan_deg": 81.4718,
      "arg_perigee_deg": 59.2852,
      "mean_anomaly_deg": 61.6987,
      "mean_motion_rev_day": 15.69789988
    },
    {
      "epoch": "2026-04-03T20:00:01.999008Z",
      "apogee_km": 364.84770487968945,
      "perigee_km": 352.8639420453146,
      "latitude_deg": 20.914691724217153,
      "longitude_deg": 108.5681294827062,
      "height_km": 359.5838718930756,
      "semi_major_axis_km": 6736.992823462502,
      "eccentricity": 0.0008894,
      "inclination_deg": 53.0437,
      "raan_deg": 77.3514,
      "arg_perigee_deg": 61.7031,
      "mean_anomaly_deg": 91.7244,
      "mean_motion_rev_day": 15.70014397
    }
  ]
}